"name","address","phone","cuisine","eatingOptions","latitude","longitude"
"Artespresso","31 Giles Street, Kingston, ACT, 2604","02 6295 8055","Cafe","Take Away,Dine In","-35.315173","149.140128"
"Coyote Catering","Lithgow st & Norhbourne Ave, City, ACT, 2601","02 6255 7500","Catering","Delivery,Catering","-35.2809942","149.1213974"
"Nando's Canberra","Canberra Centre, North Quarter, 125 Bunda St, Canberra, ACT, 2601","02 6247 4044","Burgers, Fast Food, BBQ Chicken","Take Away,Dine In","-35.2774841","149.1328422"
"Nando's Belconnen","Belconnen Westfield Shopping Centre - Shop 326, 18 Benjamin Way, Belconnen, ACT, 2617","02 6251 2788","Burgers, Fast Food, BBQ Chicken","Take Away,Dine In","-35.2368717","149.0671395"
"Nando's Tuggeranong","Hyperdome Shopping Centre - Shop G-010B, Cnr Anketell & Reed St, Tuggeranong, ACT, 2900","02 6293 9633","Burgers, Fast Food, BBQ Chicken","Take Away,Dine In","-35.4173085","149.0678798"
"Flavours of India","Shop 1 70 Bunda St, Canberra, ACT, 2600","02 6257 3690","Indian","Take Away,Dine In,Catering","-35.278043","149.132146"
"Flavours of India Gungahlin","25 Gribble St, Gungahlin, ACT, 2912","02 6241 4558","Indian","Take Away,Dine In,Catering","-35.1840064","149.1309892"
"Greater Indian and International Restaurant","44 Curtin Place, Curtin, ACT, 2605","02 6285 3679","Indian","Take Away,Dine In","-35.3250923","149.0819531"
"Kashmir House","Narrabundah Shops Boolimba Crescent, Narrabundah, ACT, 2604","02 6295 7080","Indian","Take Away,Dine In","-35.3321935","149.1524974"
"Kushi Restaurant","Style Arcade Shop 19 6 Franklin Street, Manuka, ACT, 2603","02 6295 7122","Indian","Take Away,Dine In","-35.3239832","149.1328799"
"Masala Hut","21 Brierly Street, Weston, ACT, 2611","02 6288 9563","Indian","Take Away,Dine In","-35.3404225","149.0522717"
"Ruchi","Unit 4, 17- 23 Oatley Court, Belconnen, ACT, 2617","02 6253 2506","Indian","Take Away,Dine In","-35.241092","149.05997"
"Shalimar","Tasman Horse, Marcus Clarke Street, City, ACT, 2601","02 6249 6784","Indian","Take Away,Dine In","-35.2809942","149.1213974"
"Indo Cafe","Ground Floor Waldorf Apartments London Circuit, Canberra, ACT, 2601","02 6248 7701","Indonesian","Take Away,Dine In","-35.2809962","149.131364"
"Kapital Kebab","55 Wollongong St, Fyshwick, ACT, 2609","02 6280 4110","Kebabs","Take Away,Dine In","-35.3243193","149.1795842"
"Roti House","Shop 4, Ground Floor, Ernst&Young Building, 121 Marcus Clarke Street , Canberra, ACT, 2600","02 6257 9688","Malaysian","Take Away,Dine In","-35.2780023","149.1258383"
"Saffron","Capitol Theatre Centre Shop 8 Franklin Street, Manuka, ACT, 2603","02 6295 7068","Meditteranean","Take Away,Dine In,Catering","-35.3239832","149.1328799"
"That Pizza Place","117 London Circuit, City, ACT, 2601","02 6247 4992","Pizza","Take Away,Dine In","-35.2809942","149.1213974"
"Samiuz Ristorante & Pizzeria","57 Bejamin Way, Belconnen, ACT, 2617","02 6162 1108","Pizza, Italian, Seafood, Steaks","Take Away,Dine In,Delivery","-35.2374551","149.0672515"
"Pasha Patisserie","Shop 7/ Mawson Place, Mawson, ACT, 2607","02 6290 0450","Sweets","Take Away,Dine In","-35.3657565","149.0938978"
"Sukothai","27 Bentham Street, Yarralumla, ACT, 2600","02 6281 1092","Thai","Take Away,Dine In","-35.3076437","149.0974865"
"Fig & Olive Turkish Cuisine","Chisholm Shopping Centre Shop 4 Halley St, Chisholm, ACT, 2905","02 6292 8188","Turkish","Take Away,Dine In","-35.4128839","149.1281975"
"Harem Turkish Restaurant","48 Jardine Street, Kingston, ACT, 2604","02 6295 0386","Turkish","Take Away,Dine In","-35.315479","149.1419227"
"Mecca Bah Canberra","25-29 Manuka Terrace, Manuka, ACT, 2603","02 6260 6700","Desserts, Lebanese, Turkish, Moroccan","Dine In","-35.3239832","149.1328799"
"Turk 'Oz Pide Restaurant","Unit 6 26 Challis Street, Dickson, ACT, 2602","02 6262 8722","Turkish","Take Away,Dine In","-35.2492843","149.1356301"
"Turkish Delight","5 Weedon Close, Belconnen, ACT, 2617","02 6251 1319","Turkish","Take Away,Dine In,Catering","-35.2415656","149.0637046"
"Turkish Halal Pide House","Shop 1 47 Novar Street, Yarralumla, ACT, 2600","02 6281 1991","Turkish","Take Away,Dine In","-35.3071373","149.0982337"
"Turkish Pide Heaven","Shop 4/118 Mawson Place, Mawson, ACT, 2607","02 6162 0227","Turkish","Take Away,Dine In","-35.3658","149.093657"
"Turkish Pide House Restaurant","16 Moore Street , Canberra, ACT, 2601","02 6249 8800","Turkish","Take Away,Dine In","-35.275967","149.128566"
"Turkish Pide House Restaurant Woden","99 Corinna Street, Woden, ACT, 2606","02 6260 3016","Turkish","Take Away,Dine In","-35.3490795","149.0898262"
"Turkish Pide House Restaurant Jamison Centre","2 Lawry Place, Jamison Centre, ACT, 2614","02 6251 3325","Turkish","Take Away,Dine In","-35.252186","149.0714867"
"Delissio","83 Theodore Street, Curtin, ACT, 2605","02 6282 0855","Italian, Western","Take Away,Dine In","-35.333178","149.080098"
"Delissio Braddon","Elouera Street, Braddon, ACT, 2612","02 6257 5733","Italian, Western","Take Away,Dine In","-35.27347","149.1339818"
"McDonald's Braddon","Corner Mort & Cooyong Street, Braddon, ACT, 2612","02 6247 9533","Burgers, Fast Food, Western","Take Away,Dine In,Catering","-35.2760677","149.1328609"
"Waldorf On London","2 Akuna Street, Canberra, ACT, 2601","02 6229 1234","Western","Take Away,Dine In","-35.2818705","149.1322691"
